<?xml version="1.0" encoding="UTF-8"?>
<ndm xmlns:xsi="http://www.w3.org/2001/XMLSchema-instance" xsi:noNamespaceSchemaLocation="https://sanaregistry.org/r/ndmxml_unqualified/ndmxml-2.0.0-master-2.0.xsd">
<omm id="CCSDS_OMM_VERS" version="2.0">
<header><CREATION_DATE/><ORIGINATOR/></header><body><segment><metadata><OBJECT_NAME>ORBCOMM FM37</OBJECT_NAME><OBJECT_ID>2008-031E</OBJECT_ID><CENTER_NAME>EARTH</CENTER_NAME><REF_FRAME>TEME</REF_FRAME><TIME_SYSTEM>UTC</TIME_SYSTEM><MEAN_ELEMENT_THEORY>SGP4</MEAN_ELEMENT_THEORY></metadata><data><meanElements><EPOCH>2025-04-10T00:36:50.624352</EPOCH><MEAN_MOTION>14.79450843</MEAN_MOTION><ECCENTRICITY>.0005099</ECCENTRICITY><INCLINATION>48.4392</INCLINATION><RA_OF_ASC_NODE>307.6147</RA_OF_ASC_NODE><ARG_OF_PERICENTER>82.9578</ARG_OF_PERICENTER><MEAN_ANOMALY>75.5334</MEAN_ANOMALY></meanElements><tleParameters><EPHEMERIS_TYPE>0</EPHEMERIS_TYPE><CLASSIFICATION_TYPE>U</CLASSIFICATION_TYPE><NORAD_CAT_ID>33064</NORAD_CAT_ID><ELEMENT_SET_NO>999</ELEMENT_SET_NO><REV_AT_EPOCH>90427</REV_AT_EPOCH><BSTAR>.51647E-3</BSTAR><MEAN_MOTION_DOT>.3689E-4</MEAN_MOTION_DOT><MEAN_MOTION_DDOT>0</MEAN_MOTION_DDOT></tleParameters></data></segment></body></omm>
<omm id="CCSDS_OMM_VERS" version="2.0">
<header><CREATION_DATE/><ORIGINATOR/></header><body><segment><metadata><OBJECT_NAME>ORBCOMM FM40</OBJECT_NAME><OBJECT_ID>2008-031F</OBJECT_ID><CENTER_NAME>EARTH</CENTER_NAME><REF_FRAME>TEME</REF_FRAME><TIME_SYSTEM>UTC</TIME_SYSTEM><MEAN_ELEMENT_THEORY>SGP4</MEAN_ELEMENT_THEORY></metadata><data><meanElements><EPOCH>2025-04-09T21:38:30.284160</EPOCH><MEAN_MOTION>14.81603963</MEAN_MOTION><ECCENTRICITY>.0006287</ECCENTRICITY><INCLINATION>48.4409</INCLINATION><RA_OF_ASC_NODE>293.3601</RA_OF_ASC_NODE><ARG_OF_PERICENTER>96.3188</ARG_OF_PERICENTER><MEAN_ANOMALY>45.8284</MEAN_ANOMALY></meanElements><tleParameters><EPHEMERIS_TYPE>0</EPHEMERIS_TYPE><CLASSIFICATION_TYPE>U</CLASSIFICATION_TYPE><NORAD_CAT_ID>33065</NORAD_CAT_ID><ELEMENT_SET_NO>999</ELEMENT_SET_NO><REV_AT_EPOCH>90447</REV_AT_EPOCH><BSTAR>.66504E-3</BSTAR><MEAN_MOTION_DOT>.5073E-4</MEAN_MOTION_DOT><MEAN_MOTION_DDOT>0</MEAN_MOTION_DDOT></tleParameters></data></segment></body></omm>
<omm id="CCSDS_OMM_VERS" version="2.0">
<header><CREATION_DATE/><ORIGINATOR/></header><body><segment><metadata><OBJECT_NAME>VESSELSAT 1</OBJECT_NAME><OBJECT_ID>2011-058C</OBJECT_ID><CENTER_NAME>EARTH</CENTER_NAME><REF_FRAME>TEME</REF_FRAME><TIME_SYSTEM>UTC</TIME_SYSTEM><MEAN_ELEMENT_THEORY>SGP4</MEAN_ELEMENT_THEORY></metadata><data><meanElements><EPOCH>2025-04-09T19:14:59.589312</EPOCH><MEAN_MOTION>14.11335771</MEAN_MOTION><ECCENTRICITY>.001368</ECCENTRICITY><INCLINATION>19.9606</INCLINATION><RA_OF_ASC_NODE>147.6798</RA_OF_ASC_NODE><ARG_OF_PERICENTER>153.6842</ARG_OF_PERICENTER><MEAN_ANOMALY>206.4258</MEAN_ANOMALY></meanElements><tleParameters><EPHEMERIS_TYPE>0</EPHEMERIS_TYPE><CLASSIFICATION_TYPE>U</CLASSIFICATION_TYPE><NORAD_CAT_ID>37840</NORAD_CAT_ID><ELEMENT_SET_NO>999</ELEMENT_SET_NO><REV_AT_EPOCH>69663</REV_AT_EPOCH><BSTAR>.10618E-3</BSTAR><MEAN_MOTION_DOT>.46E-5</MEAN_MOTION_DOT><MEAN_MOTION_DDOT>0</MEAN_MOTION_DDOT></tleParameters></data></segment></body></omm>
<omm id="CCSDS_OMM_VERS" version="2.0">
<header><CREATION_DATE/><ORIGINATOR/></header><body><segment><metadata><OBJECT_NAME>ORBCOMM FM109</OBJECT_NAME><OBJECT_ID>2014-040A</OBJECT_ID><CENTER_NAME>EARTH</CENTER_NAME><REF_FRAME>TEME</REF_FRAME><TIME_SYSTEM>UTC</TIME_SYSTEM><MEAN_ELEMENT_THEORY>SGP4</MEAN_ELEMENT_THEORY></metadata><data><meanElements><EPOCH>2025-04-09T22:30:06.630336</EPOCH><MEAN_MOTION>14.58035290</MEAN_MOTION><ECCENTRICITY>.0001631</ECCENTRICITY><INCLINATION>47.0042</INCLINATION><RA_OF_ASC_NODE>338.5968</RA_OF_ASC_NODE><ARG_OF_PERICENTER>12.0215</ARG_OF_PERICENTER><MEAN_ANOMALY>348.0709</MEAN_ANOMALY></meanElements><tleParameters><EPHEMERIS_TYPE>0</EPHEMERIS_TYPE><CLASSIFICATION_TYPE>U</CLASSIFICATION_TYPE><NORAD_CAT_ID>40086</NORAD_CAT_ID><ELEMENT_SET_NO>999</ELEMENT_SET_NO><REV_AT_EPOCH>57122</REV_AT_EPOCH><BSTAR>.37808E-3</BSTAR><MEAN_MOTION_DOT>.1586E-4</MEAN_MOTION_DOT><MEAN_MOTION_DDOT>0</MEAN_MOTION_DDOT></tleParameters></data></segment></body></omm>
<omm id="CCSDS_OMM_VERS" version="2.0">
<header><CREATION_DATE/><ORIGINATOR/></header><body><segment><metadata><OBJECT_NAME>ORBCOMM FM107</OBJECT_NAME><OBJECT_ID>2014-040B</OBJECT_ID><CENTER_NAME>EARTH</CENTER_NAME><REF_FRAME>TEME</REF_FRAME><TIME_SYSTEM>UTC</TIME_SYSTEM><MEAN_ELEMENT_THEORY>SGP4</MEAN_ELEMENT_THEORY></metadata><data><meanElements><EPOCH>2025-04-09T23:15:40.313376</EPOCH><MEAN_MOTION>14.58093732</MEAN_MOTION><ECCENTRICITY>.0001542</ECCENTRICITY><INCLINATION>47.0065</INCLINATION><RA_OF_ASC_NODE>339.4356</RA_OF_ASC_NODE><ARG_OF_PERICENTER>316.8536</ARG_OF_PERICENTER><MEAN_ANOMALY>43.2228</MEAN_ANOMALY></meanElements><tleParameters><EPHEMERIS_TYPE>0</EPHEMERIS_TYPE><CLASSIFICATION_TYPE>U</CLASSIFICATION_TYPE><NORAD_CAT_ID>40087</NORAD_CAT_ID><ELEMENT_SET_NO>999</ELEMENT_SET_NO><REV_AT_EPOCH>57118</REV_AT_EPOCH><BSTAR>.33459E-3</BSTAR><MEAN_MOTION_DOT>.1386E-4</MEAN_MOTION_DOT><MEAN_MOTION_DDOT>0</MEAN_MOTION_DDOT></tleParameters></data></segment></body></omm>
<omm id="CCSDS_OMM_VERS" version="2.0">
<header><CREATION_DATE/><ORIGINATOR/></header><body><segment><metadata><OBJECT_NAME>ORBCOMM FM106</OBJECT_NAME><OBJECT_ID>2014-040C</OBJECT_ID><CENTER_NAME>EARTH</CENTER_NAME><REF_FRAME>TEME</REF_FRAME><TIME_SYSTEM>UTC</TIME_SYSTEM><MEAN_ELEMENT_THEORY>SGP4</MEAN_ELEMENT_THEORY></metadata><data><meanElements><EPOCH>2025-04-09T21:28:28.729344</EPOCH><MEAN_MOTION>14.69235494</MEAN_MOTION><ECCENTRICITY>.0015912</ECCENTRICITY><INCLINATION>47.0585</INCLINATION><RA_OF_ASC_NODE>167.3454</RA_OF_ASC_NODE><ARG_OF_PERICENTER>110.8855</ARG_OF_PERICENTER><MEAN_ANOMALY>249.3741</MEAN_ANOMALY></meanElements><tleParameters><EPHEMERIS_TYPE>0</EPHEMERIS_TYPE><CLASSIFICATION_TYPE>U</CLASSIFICATION_TYPE><NORAD_CAT_ID>40088</NORAD_CAT_ID><ELEMENT_SET_NO>999</ELEMENT_SET_NO><REV_AT_EPOCH>57343</REV_AT_EPOCH><BSTAR>.41287E-3</BSTAR><MEAN_MOTION_DOT>.2274E-4</MEAN_MOTION_DOT><MEAN_MOTION_DDOT>0</MEAN_MOTION_DDOT></tleParameters></data></segment></body></omm>
<omm id="CCSDS_OMM_VERS" version="2.0">
<header><CREATION_DATE/><ORIGINATOR/></header><body><segment><metadata><OBJECT_NAME>ORBCOMM FM111</OBJECT_NAME><OBJECT_ID>2014-040D</OBJECT_ID><CENTER_NAME>EARTH</CENTER_NAME><REF_FRAME>TEME</REF_FRAME><TIME_SYSTEM>UTC</TIME_SYSTEM><MEAN_ELEMENT_THEORY>SGP4</MEAN_ELEMENT_THEORY></metadata><data><meanElements><EPOCH>2025-04-09T21:55:13.682784</EPOCH><MEAN_MOTION>14.85836455</MEAN_MOTION><ECCENTRICITY>.0030632</ECCENTRICITY><INCLINATION>47.0028</INCLINATION><RA_OF_ASC_NODE>26.5814</RA_OF_ASC_NODE><ARG_OF_PERICENTER>226.3005</ARG_OF_PERICENTER><MEAN_ANOMALY>133.5353</MEAN_ANOMALY></meanElements><tleParameters><EPHEMERIS_TYPE>0</EPHEMERIS_TYPE><CLASSIFICATION_TYPE>U</CLASSIFICATION_TYPE><NORAD_CAT_ID>40089</NORAD_CAT_ID><ELEMENT_SET_NO>999</ELEMENT_SET_NO><REV_AT_EPOCH>58007</REV_AT_EPOCH><BSTAR>.68748E-3</BSTAR><MEAN_MOTION_DOT>.5891E-4</MEAN_MOTION_DOT><MEAN_MOTION_DDOT>0</MEAN_MOTION_DDOT></tleParameters></data></segment></body></omm>
<omm id="CCSDS_OMM_VERS" version="2.0">
<header><CREATION_DATE/><ORIGINATOR/></header><body><segment><metadata><OBJECT_NAME>ORBCOMM FM104</OBJECT_NAME><OBJECT_ID>2014-040E</OBJECT_ID><CENTER_NAME>EARTH</CENTER_NAME><REF_FRAME>TEME</REF_FRAME><TIME_SYSTEM>UTC</TIME_SYSTEM><MEAN_ELEMENT_THEORY>SGP4</MEAN_ELEMENT_THEORY></metadata><data><meanElements><EPOCH>2025-04-10T00:29:04.959456</EPOCH><MEAN_MOTION>14.56516583</MEAN_MOTION><ECCENTRICITY>.00169</ECCENTRICITY><INCLINATION>47.0070</INCLINATION><RA_OF_ASC_NODE>11.9853</RA_OF_ASC_NODE><ARG_OF_PERICENTER>254.8383</ARG_OF_PERICENTER><MEAN_ANOMALY>105.0632</MEAN_ANOMALY></meanElements><tleParameters><EPHEMERIS_TYPE>0</EPHEMERIS_TYPE><CLASSIFICATION_TYPE>U</CLASSIFICATION_TYPE><NORAD_CAT_ID>40090</NORAD_CAT_ID><ELEMENT_SET_NO>999</ELEMENT_SET_NO><REV_AT_EPOCH>57078</REV_AT_EPOCH><BSTAR>.33953E-3</BSTAR><MEAN_MOTION_DOT>.1358E-4</MEAN_MOTION_DOT><MEAN_MOTION_DDOT>0</MEAN_MOTION_DDOT></tleParameters></data></segment></body></omm>

</ndm>
