ORBCOMM FM37            
1 33064U 08031E   25100.02558593  .00003689  00000+0  51647-3 0  9994
2 33064  48.4392 307.6147 0005099  82.9578  75.5334 14.79450843904272
ORBCOMM FM40            
1 33065U 08031F   25099.90173940  .00005073  00000+0  66504-3 0  9995
2 33065  48.4409 293.3601 0006287  96.3188  45.8284 14.81603963904476
VESSELSAT 1             
1 37840U 11058C   25099.80207858  .00000460  00000+0  10618-3 0  9998
2 37840  19.9606 147.6798 0013680 153.6842 206.4258 14.11335771696634
ORBCOMM FM109           
1 40086U 14040A   25099.93757674  .00001586  00000+0  37808-3 0  9998
2 40086  47.0042 338.5968 0001631  12.0215 348.0709 14.58035290571226
ORBCOMM FM107           
1 40087U 14040B   25099.96921659  .00001386  00000+0  33459-3 0  9994
2 40087  47.0065 339.4356 0001542 316.8536  43.2228 14.58093732571185
ORBCOMM FM106           
1 40088U 14040C   25099.89477696  .00002274  00000+0  41287-3 0  9999
2 40088  47.0585 167.3454 0015912 110.8855 249.3741 14.69235494573436
ORBCOMM FM111           
1 40089U 14040D   25099.91335281  .00005891  00000+0  68748-3 0  9995
2 40089  47.0028  26.5814 0030632 226.3005 133.5353 14.85836455580074
ORBCOMM FM104           
1 40090U 14040E   25100.02019629  .00001358  00000+0  33953-3 0  9991
2 40090  47.0070  11.9853 0016900 254.8383 105.0632 14.56516583570787
